satname,norad_id,inclination_deg,eccentricity,mean_motion_rev_per_day,perigee_km,apogee_km,l1,l2
STARLINK-1184,45098,53.0537,0.0003453,15.08641835,537.9602131195261,542.7381196660372,1 45098U 20006BG  26030.46333818  .00033663  00000+0  21342-2 0  9995,2 45098  53.0537  57.8567 0003453  23.4078 336.7069 15.08641835331268
STARLINK-1193,45100,53.0553,0.0002353,15.44958801,429.8968225588096,433.1014373215594,1 45100U 20006BJ  26030.46691766  .00106650  00000+0  22076-2 0  9990,2 45100  53.0553  53.6938 0002353  68.8542 291.2715 15.44958801331327
STARLINK-1143,45179,53.0487,0.0002213,15.55073964,400.4372031559842,403.4380641888465,1 45179U 20012B   26030.46967595  .00134262  00000+0  19357-2 0  9997,2 45179  53.0487 155.6168 0002213 263.7474  96.3284 15.55073964329964
STARLINK-1202,45183,53.1531,2.17e-05,15.29389313,477.4879335506266,477.78547412937405,1 45183U 20012F   26030.54084588  .00010600  00000+0  37875-3 0  9998,2 45183  53.1531 216.4074 0000217  79.2067 280.8958 15.29389313329116
STARLINK-1216,45185,53.1578,0.0001327,15.30180616,474.36349966032503,476.1823946603017,1 45185U 20012H   26030.58335647  .00073801  00000+0  24807-2 0  9991,2 45185  53.1578 216.2273 0001327 342.9343 282.5599 15.30180616  5835
STARLINK-1225,45187,53.1555,9.13e-05,15.29357121,477.1069690462664,478.3588508918274,1 45187U 20012K   26030.58335647  .00015012  00000+0  53149-3 0  9995,2 45187  53.1555 216.6604 0000913  83.4557 202.5546 15.29357121  5781
STARLINK-1230,45189,53.1522,0.0001292,15.29235271,477.2112650927793,478.98291598177366,1 45189U 20012M   26030.58335647  .00100723  00000+0  34685-2 0  9994,2 45189  53.1522 216.7140 0001292  92.7269 145.4909 15.29235271  5786
STARLINK-1234,45190,53.0462,0.000959,15.53551858,399.85913118790177,412.87180692355105,1 45190U 20012N   26030.58335647  .00122396  00000+0  18658-2 0  9998,2 45190  53.0462 150.3226 0009590 184.7675  44.6465 15.53551858  5966
STARLINK-1269,45197,53.1532,0.0001835,15.29279005,476.7082795160577,479.2244694544934,1 45197U 20012V   26030.58335647  .00083046  00000+0  28649-2 0  9994,2 45197  53.1532 216.5742 0001835  88.7066 165.4008 15.29279005  5487
STARLINK-1154,45198,53.0496,0.0001775,15.40250422,444.15844431428104,446.580789163223,1 45198U 20012W   26030.58335647  .00091388  00000+0  22207-2 0  9997,2 45198  53.0496 190.9557 0001775 290.8767 328.1164 15.40250422  5893
STARLINK-1199,45201,53.0558,0.0001484,15.06395373,546.1980152326887,548.2534628936428,1 45201U 20012Z   26030.45226715 -.00000244  00000+0  24973-5 0  9990,2 45201  53.0558 198.2726 0001484  81.2238 278.8919 15.06395373329354
STARLINK-1209,45206,53.0476,0.0012399,15.43939328,426.04944677498133,442.9434151570904,1 45206U 20012AE  26030.37620719  .00116959  00000+0  24959-2 0  9999,2 45206  53.0476 156.5994 0012399 165.9454 194.1899 15.43939328328989
STARLINK-1210,45207,53.0132,0.0008016,15.88111633,302.21817511002064,312.9367125063336,1 45207U 20012AF  26030.58335647  .00369088  00000+0  12685-2 0  9992,2 45207  53.0132  95.6918 0008016 355.5024 324.1313 15.88111633  6045
STARLINK-1231,45212,53.0493,8.89e-05,15.17974555,511.3502853658538,512.5753451130022,1 45212U 20012AL  26030.46392042  .00010936  00000+0  54624-3 0  9992,2 45212  53.0493 190.9041 0000889 180.1673 179.9320 15.17974555329414
STARLINK-1271,45217,53.054,0.0001262,15.06380546,546.3971957754538,548.1451688006628,1 45217U 20012AR  26030.43752026 -.00007719  00000+0 -50013-3 0  9991,2 45217  53.0540 198.3387 0001262  81.4309 278.6823 15.06380546329359
STARLINK-1191,45222,53.1595,0.000121,15.31021978,471.93293062168686,473.59084815291953,1 45222U 20012AW  26030.00021991 -.00000073  00000+0  95346-5 0  9995,2 45222  53.1595 178.6883 0001210  75.4495 190.3057 15.31021978  5809
STARLINK-1212,45223,53.053,8.08e-05,15.41739402,440.424590679173,441.52655927129035,1 45223U 20012AX  26030.45498406  .00025754  00000+0  60766-3 0  9992,2 45223  53.0530 172.4785 0000808 310.6392  49.4542 15.41739402329725
STARLINK-1215,45225,53.1546,0.0001146,15.29351464,476.964131692288,478.53550095058927,1 45225U 20012AZ  26030.11775842 -.00001264  00000+0 -31478-4 0  9990,2 45225  53.1546 177.4437 0001146  99.2175 260.8955 15.29351464329573
STARLINK-1221,45227,53.0664,0.0001862,15.4043622,443.5504978380013,446.0913673721034,1 45227U 20012BB  26030.39155991  .00020380  00000+0  50441-3 0  9997,2 45227  53.0664  90.8899 0001862 259.2905 100.7890 15.40436220330804
STARLINK-1222,45228,53.0557,6.61e-05,15.46387197,426.8552758965516,427.7549553442359,1 45228U 20012BC  26030.53042397  .00029191  00000+0  58745-3 0  9993,2 45228  53.0557 165.3609 0000661  73.1903 286.9175 15.46387197329715
STARLINK-1226,45229,53.1581,9.96e-05,15.3103027,472.0548061658719,473.41950029719555,1 45229U 20012BD  26030.42561875  .00012108  00000+0  40967-3 0  9996,2 45229  53.1581 176.5112 0000996  79.9561 280.1552 15.31030270329550
STARLINK-1227,45230,53.1583,0.0002845,15.31015002,470.8336132556742,474.7317865649238,1 45230U 20012BE  26030.58335647  .00040750  00000+0  13460-2 0  9992,2 45230  53.1583 176.0936 0002845  67.5182 289.9140 15.31015002  5838
STARLINK-1246,45235,53.1478,0.000167,15.27863688,481.0540873123582,483.3454397913856,1 45235U 20012BK  26030.58335647  .00786204  00000+0  26412-1 0  9998,2 45235  53.1478 216.1890 0001670 116.7087 111.2924 15.27863688  5694
STARLINK-1270,45237,53.0508,0.0001651,15.4110082,441.7330439102443,443.98533685230905,1 45237U 20012BM  26030.38561250  .00024201  00000+0  58391-3 0  9994,2 45237  53.0508 169.6340 0001651 228.1311 131.9552 15.41100820329758
STARLINK-1279,45360,53.0471,0.0008071,15.49473462,412.7799474068106,423.75070003776364,1 45360U 20019A   26030.58335647  .00136213  00000+0  23981-2 0  9992,2 45360  53.0471 282.5229 0008071  90.2887 112.3174 15.49473462  5942
STARLINK-1301,45361,53.0456,0.0010329,15.55360584,394.1023799812865,408.1069373998089,1 45361U 20019B   26030.58335647  .00157755  00000+0  22385-2 0  9994,2 45361  53.0456 289.7914 0010329  80.1933 116.9179 15.55360584  5969
STARLINK-1262,45366,53.0559,0.0001286,15.06399188,546.3234464578536,548.1046467470396,1 45366U 20019G   26030.14449574  .00000472  00000+0  50544-4 0  9999,2 45366  53.0559 339.6540 0001286  86.9141 273.1996 15.06399188323925
STARLINK-1273,45367,53.0684,0.0001412,15.37484513,452.5861137773436,454.5153823974033,1 45367U 20019H   26030.58335647  .00014816  00000+0  40680-3 0  9999,2 45367  53.0684 335.4328 0001412 108.7302  71.9627 15.37484513  5794
STARLINK-1276,45368,53.0551,0.0001562,15.0639044,546.1591140949031,548.3226021377786,1 45368U 20019J   26030.26981292 -.00005840  00000+0 -37357-3 0  9994,2 45368  53.0551 339.0899 0001562 103.1878 256.9285 15.06390440323940
STARLINK-1277,45369,53.0567,0.000113,15.43053867,436.3322859556338,437.8725300618444,1 45369U 20019K   26030.21919694  .00046214  00000+0  10336-2 0  9992,2 45369  53.0567 335.9704 0001130  68.0886 292.0239 15.43053867323981
STARLINK-1281,45370,53.0544,0.0001937,15.06402001,545.8639863405078,548.5468639960181,1 45370U 20019L   26030.12605593 -.00000651  00000+0 -24767-4 0  9996,2 45370  53.0544 339.7384 0001937  34.1666 325.9448 15.06402001323928
STARLINK-1300,45374,53.0556,0.0001523,15.06380567,546.2163782683374,548.3258575810578,1 45374U 20019Q   26030.14818281 -.00001424  00000+0 -76793-4 0  9997,2 45374  53.0556 339.6369 0001523  99.9459 260.1702 15.06380567323922
STARLINK-1302,45375,53.0549,5.65e-05,15.43058241,436.7044685799756,437.4745891777384,1 45375U 20019R   26030.58335647  .00051333  00000+0  11461-2 0  9997,2 45375  53.0549 333.7262 0000565  61.9977 290.2472 15.43058241  5793
STARLINK-1304,45376,53.0565,0.0004946,15.42085437,436.5831955157382,443.32765254158676,1 45376U 20019S   26030.15390795  .00033532  00000+0  77827-3 0  9996,2 45376  53.0565 332.9895 0004946  90.4324 269.7247 15.42085437324011
STARLINK-1305,45377,53.0501,0.0005829,15.4563789,425.536229096906,433.47257744483886,1 45377U 20019T   26030.58335647  .00132396  00000+0  26657-2 0  9991,2 45377  53.0501 314.9078 0005829  50.0166 308.7040 15.45637890  5630
STARLINK-1319,45379,53.0522,0.0006781,15.5108601,408.94858768593167,418.1594790653953,1 45379U 20019V   26030.20573124  .00116309  00000+0  19408-2 0  9998,2 45379  53.0522 316.1578 0006781  65.9252 294.2466 15.51086010324266
STARLINK-1266,45383,53.0547,0.0001548,15.40972755,442.1811496190967,444.29304703993876,1 45383U 20019Z   26030.50466324  .00080826  00000+0  19215-2 0  9999,2 45383  53.0547 314.2227 0001548 108.8186 251.2986 15.40972755324300
STARLINK-1267,45384,53.0564,0.0008263,15.42734809,432.40982143202746,443.67423889727615,1 45384U 20019AA  26030.03309712  .00106337  00000+0  23707-2 0  9992,2 45384  53.0564 311.4511 0008263  96.5369 263.6577 15.42734809324303
STARLINK-1272,45386,53.0483,0.0007254,15.48459964,416.2983265156736,426.16284901200197,1 45386U 20019AC  26030.42685174  .00102620  00000+0  18825-2 0  9992,2 45386  53.0483 294.0650 0007254  69.3832 290.7953 15.48459964324588
STARLINK-1274,45387,53.0316,0.0010364,15.41590532,434.3467949999249,448.4823615113346,1 45387U 20019AD  26030.08845892  .00080466  00000+0  18712-2 0  9998,2 45387  53.0316 286.6894 0010364 104.1266 256.0890 15.41590532324659
STARLINK-1280,45388,53.0494,0.0007133,15.57035204,391.4108223204357,401.0751528106957,1 45388U 20019AE  26030.58335647  .00165273  00000+0  22043-2 0  9998,2 45388  53.0494 308.5463 0007133  69.9412   9.8855 15.57035204  5810
STARLINK-1283,45389,53.0492,0.0012572,15.48221674,413.37919766804134,430.4772817067105,1 45389U 20019AF  26030.58335647  .00144240  00000+0  26456-2 0  9992,2 45389  53.0492 293.4659 0012572 100.4035 149.9226 15.48221674  5886
STARLINK-1284,45390,53.0539,0.0002349,15.44883689,430.1202150634008,433.31948581173674,1 45390U 20019AG  26030.20590131  .00099556  00000+0  20685-2 0  9991,2 45390  53.0539 315.1679 0002349  94.6591 265.4683 15.44883689324269
